{
  "type": "FeatureCollection",
  "features": [
    {
      "type": "Feature",
      "properties": {
        "norad_id": 31978,
        "name": "FENGYUN 1C DEB",
        "group": "fengyun-1c-debris",
        "lat": -55.83292491005548,
        "lon": 159.17392616535608,
        "alt_km": 1032.182807248957,
        "timestamp": "2025-12-18T08:58:43.696725+00:00",
        "meta_object_name": "FENGYUN 1C DEB",
        "meta_object_id": "1999-025CPF",
        "meta_epoch": "2025-12-17T05:03:54.528192",
        "meta_mean_motion": 13.63121561,
        "meta_eccentricity": 0.02630843,
        "meta_inclination": 98.3794,
        "meta_ra_of_asc_node": 145.6299,
        "meta_arg_of_pericenter": 38.1367,
        "meta_mean_anomaly": 323.8078,
        "meta_ephemeris_type": 0,
        "meta_classification_type": "U",
        "meta_norad_cat_id": 31978,
        "meta_element_set_no": 999,
        "meta_rev_at_epoch": 91651,
        "meta_bstar": 0.0010478209,
        "meta_mean_motion_dot": 1.004e-05,
        "meta_mean_motion_ddot": 0,
        "tle_line1": "1 31978U 99025CPF 25351.21104778  .00001004  00000+0  10478-2 0  9995",
        "tle_line2": "2 31978  98.3794 145.6299 0263084  38.1367 323.8078 13.63121561916519"
      },
      "geometry": {
        "type": "Point",
        "coordinates": [
          159.17392616535608,
          -55.83292491005548
        ]
      }
    },
    {
      "type": "Feature",
      "properties": {
        "norad_id": 31979,
        "name": "FENGYUN 1C DEB",
        "group": "fengyun-1c-debris",
        "lat": -9.150705488523082,
        "lon": 86.35678440965795,
        "alt_km": 981.8089222093167,
        "timestamp": "2025-12-18T08:58:43.696735+00:00",
        "meta_object_name": "FENGYUN 1C DEB",
        "meta_object_id": "1999-025CPG",
        "meta_epoch": "2025-12-17T11:58:49.962432",
        "meta_mean_motion": 13.69322334,
        "meta_eccentricity": 0.02672167,
        "meta_inclination": 99.3768,
        "meta_ra_of_asc_node": 83.9793,
        "meta_arg_of_pericenter": 268.6105,
        "meta_mean_anomaly": 88.442,
        "meta_ephemeris_type": 0,
        "meta_classification_type": "U",
        "meta_norad_cat_id": 31979,
        "meta_element_set_no": 999,
        "meta_rev_at_epoch": 57977,
        "meta_bstar": 0.0028525077,
        "meta_mean_motion_dot": 3.138e-05,
        "meta_mean_motion_ddot": 0,
        "tle_line1": "1 31979U 99025CPG 25351.49918938  .00003138  00000+0  28525-2 0  9999",
        "tle_line2": "2 31979  99.3768  83.9793 0267216 268.6105  88.4420 13.69322334579771"
      },
      "geometry": {
        "type": "Point",
        "coordinates": [
          86.35678440965795,
          -9.150705488523082
        ]
      }
    },
    {
      "type": "Feature",
      "properties": {
        "norad_id": 31980,
        "name": "FENGYUN 1C DEB",
        "group": "fengyun-1c-debris",
        "lat": -9.159168513863213,
        "lon": 77.45950307213624,
        "alt_km": 1227.4428214355476,
        "timestamp": "2025-12-18T08:58:43.696745+00:00",
        "meta_object_name": "FENGYUN 1C DEB",
        "meta_object_id": "1999-025CPH",
        "meta_epoch": "2025-12-16T11:57:41.696928",
        "meta_mean_motion": 13.32153551,
        "meta_eccentricity": 0.04281038,
        "meta_inclination": 97.6145,
        "meta_ra_of_asc_node": 74.8269,
        "meta_arg_of_pericenter": 103.3204,
        "meta_mean_anomaly": 261.6022,
        "meta_ephemeris_type": 0,
        "meta_classification_type": "U",
        "meta_norad_cat_id": 31980,
        "meta_element_set_no": 999,
        "meta_rev_at_epoch": 89720,
        "meta_bstar": 0.00040322723,
        "meta_mean_motion_dot": 3.01e-06,
        "meta_mean_motion_ddot": 0,
        "tle_line1": "1 31980U 99025CPH 25350.49839927  .00000301  00000+0  40323-3 0  9990",
        "tle_line2": "2 31980  97.6145  74.8269 0428103 103.3204 261.6022 13.32153551897206"
      },
      "geometry": {
        "type": "Point",
        "coordinates": [
          77.45950307213624,
          -9.159168513863213
        ]
      }
    },
    {
      "type": "Feature",
      "properties": {
        "norad_id": 31984,
        "name": "FENGYUN 1C DEB",
        "group": "fengyun-1c-debris",
        "lat": 27.515356857378222,
        "lon": -7.946829226465712,
        "alt_km": 859.1627385385382,
        "timestamp": "2025-12-18T08:58:43.696755+00:00",
        "meta_object_name": "FENGYUN 1C DEB",
        "meta_object_id": "1999-025CPM",
        "meta_epoch": "2025-12-14T20:28:02.996544",
        "meta_mean_motion": 14.22962941,
        "meta_eccentricity": 0.00626572,
        "meta_inclination": 98.558,
        "meta_ra_of_asc_node": 353.13,
        "meta_arg_of_pericenter": 221.1233,
        "meta_mean_anomaly": 138.5215,
        "meta_ephemeris_type": 0,
        "meta_classification_type": "U",
        "meta_norad_cat_id": 31984,
        "meta_element_set_no": 999,
        "meta_rev_at_epoch": 94403,
        "meta_bstar": 0.00038353885,
        "meta_mean_motion_dot": 8.38e-06,
        "meta_mean_motion_ddot": 0,
        "tle_line1": "1 31984U 99025CPM 25348.85281246  .00000838  00000+0  38354-3 0  9992",
        "tle_line2": "2 31984  98.5580 353.1300 0062657 221.1233 138.5215 14.22962941944032"
      },
      "geometry": {
        "type": "Point",
        "coordinates": [
          -7.946829226465712,
          27.515356857378222
        ]
      }
    },
    {
      "type": "Feature",
      "properties": {
        "norad_id": 31985,
        "name": "FENGYUN 1C DEB",
        "group": "fengyun-1c-debris",
        "lat": 18.641531426114327,
        "lon": 76.02213747137597,
        "alt_km": 775.5207903464261,
        "timestamp": "2025-12-18T08:58:43.696765+00:00",
        "meta_object_name": "FENGYUN 1C DEB",
        "meta_object_id": "1999-025CPN",
        "meta_epoch": "2025-12-13T23:34:50.116800",
        "meta_mean_motion": 14.22977716,
        "meta_eccentricity": 0.01504255,
        "meta_inclination": 98.2196,
        "meta_ra_of_asc_node": 249.1254,
        "meta_arg_of_pericenter": 243.0612,
        "meta_mean_anomaly": 115.5134,
        "meta_ephemeris_type": 0,
        "meta_classification_type": "U",
        "meta_norad_cat_id": 31985,
        "meta_element_set_no": 999,
        "meta_rev_at_epoch": 95628,
        "meta_bstar": 0.00043991826,
        "meta_mean_motion_dot": 1.071e-05,
        "meta_mean_motion_ddot": 0,
        "tle_line1": "1 31985U 99025CPN 25347.98252450  .00001071  00000+0  43992-3 0  9995",
        "tle_line2": "2 31985  98.2196 249.1254 0150425 243.0612 115.5134 14.22977716956281"
      },
      "geometry": {
        "type": "Point",
        "coordinates": [
          76.02213747137597,
          18.641531426114327
        ]
      }
    },
    {
      "type": "Feature",
      "properties": {
        "norad_id": 31987,
        "name": "FENGYUN 1C DEB",
        "group": "fengyun-1c-debris",
        "lat": 29.772099466418762,
        "lon": -38.88854211081639,
        "alt_km": 753.3805627430647,
        "timestamp": "2025-12-18T08:58:43.696775+00:00",
        "meta_object_name": "FENGYUN 1C DEB",
        "meta_object_id": "1999-025CPQ",
        "meta_epoch": "2025-12-17T21:20:39.433056",
        "meta_mean_motion": 14.44944094,
        "meta_eccentricity": 0.00517476,
        "meta_inclination": 99.0388,
        "meta_ra_of_asc_node": 325.8207,
        "meta_arg_of_pericenter": 142.1869,
        "meta_mean_anomaly": 248.406,
        "meta_ephemeris_type": 0,
        "meta_classification_type": "U",
        "meta_norad_cat_id": 31987,
        "meta_element_set_no": 999,
        "meta_rev_at_epoch": 96444,
        "meta_bstar": 0.00073712534,
        "meta_mean_motion_dot": 2.562e-05,
        "meta_mean_motion_ddot": 0,
        "tle_line1": "1 31987U 99025CPQ 25351.88934529  .00002562  00000+0  73713-3 0  9995",
        "tle_line2": "2 31987  99.0388 325.8207 0051747 142.1869 248.4060 14.44944094964443"
      },
      "geometry": {
        "type": "Point",
        "coordinates": [
          -38.88854211081639,
          29.772099466418762
        ]
      }
    },
    {
      "type": "Feature",
      "properties": {
        "norad_id": 31989,
        "name": "FENGYUN 1C DEB",
        "group": "fengyun-1c-debris",
        "lat": 8.61401779493686,
        "lon": 52.0958200575753,
        "alt_km": 909.5599430456259,
        "timestamp": "2025-12-18T08:58:43.696786+00:00",
        "meta_object_name": "FENGYUN 1C DEB",
        "meta_object_id": "1999-025CPS",
        "meta_epoch": "2025-12-15T16:11:35.170368",
        "meta_mean_motion": 13.93591985,
        "meta_eccentricity": 0.0115261,
        "meta_inclination": 99.2132,
        "meta_ra_of_asc_node": 50.8156,
        "meta_arg_of_pericenter": 291.0863,
        "meta_mean_anomaly": 221.027,
        "meta_ephemeris_type": 0,
        "meta_classification_type": "U",
        "meta_norad_cat_id": 31989,
        "meta_element_set_no": 999,
        "meta_rev_at_epoch": 93758,
        "meta_bstar": 0.00049954957,
        "meta_mean_motion_dot": 6.47e-06,
        "meta_mean_motion_ddot": 0,
        "tle_line1": "1 31989U 99025CPS 25349.67471262  .00000647  00000+0  49955-3 0  9994",
        "tle_line2": "2 31989  99.2132  50.8156 0115261 291.0863 221.0270 13.93591985937587"
      },
      "geometry": {
        "type": "Point",
        "coordinates": [
          52.0958200575753,
          8.61401779493686
        ]
      }
    }
  ]
}